{
    "links": {
        "self": "http://www.neowsapp.com/rest/v1/neo/3654481?api_key=iIulBulltgU6a56xZRHN4H3l9WmuAYTsLGpBGhQ2"
    },
    "id": "3654481",
    "neo_reference_id": "3654481",
    "name": "(2013 XA21)",
    "designation": "2013 XA21",
    "nasa_jpl_url": "http://ssd.jpl.nasa.gov/sbdb.cgi?sstr=3654481",
    "absolute_magnitude_h": 21.5,
    "estimated_diameter": {
        "kilometers": {
            "estimated_diameter_min": 0.1332155667,
            "estimated_diameter_max": 0.2978790628
        },
        "meters": {
            "estimated_diameter_min": 133.2155666981,
            "estimated_diameter_max": 297.8790627982
        },
        "miles": {
            "estimated_diameter_min": 0.0827762899,
            "estimated_diameter_max": 0.1850934111
        },
        "feet": {
            "estimated_diameter_min": 437.0589598459,
            "estimated_diameter_max": 977.2935443908
        }
    },
    "is_potentially_hazardous_asteroid": false,
    "close_approach_data": [
        {
            "close_approach_date": "2013-11-20",
            "close_approach_date_full": "2013-Nov-20 14:55",
            "epoch_date_close_approach": 1384959300000,
            "relative_velocity": {
                "kilometers_per_second": "11.7477601635",
                "kilometers_per_hour": "42291.9365886774",
                "miles_per_hour": "26278.5647097812"
            },
            "miss_distance": {
                "astronomical": "0.1472549379",
                "lunar": "57.2821708431",
                "kilometers": "22029025.056822273",
                "miles": "13688201.4399744474"
            },
            "orbiting_body": "Earth"
        }
    ],
    "orbital_data": {
        "orbit_id": "8",
        "orbit_determination_date": "2017-04-06 08:43:19",
        "first_observation_date": "2013-12-12",
        "last_observation_date": "2014-01-10",
        "data_arc_in_days": 29,
        "observations_used": 44,
        "orbit_uncertainty": "7",
        "minimum_orbit_intersection": ".092713",
        "jupiter_tisserand_invariant": "2.932",
        "epoch_osculation": "2459000.5",
        "eccentricity": ".6507306482935444",
        "semi_major_axis": "2.793899396519882",
        "inclination": "16.03995826056409",
        "ascending_node_longitude": "262.4141744773586",
        "orbital_period": "1705.74682929798",
        "perihelion_distance": ".9758234309555568",
        "perihelion_argument": "131.4468834409471",
        "aphelion_distance": "4.611975362084208",
        "perihelion_time": "2458300.734348065613",
        "mean_anomaly": "147.6864153398768",
        "mean_motion": ".2110512497028427",
        "equinox": "J2000",
        "orbit_class": {
            "orbit_class_type": "APO",
            "orbit_class_description": "Near-Earth asteroid orbits which cross the Earth’s orbit similar to that of 1862 Apollo",
            "orbit_class_range": "a (semi-major axis) > 1.0 AU; q (perihelion) < 1.017 AU"
        }
    },
    "is_sentry_object": false
}